[Satellite]
VERSION=1.1
NAME=STARLINK-4800
NICKNAME=STARLINK-4800
TLE1=1 53854U 22114AN  22291.58334491 -.00050137  00000+0 -35492-3 0  9991
TLE2=2 53854  53.2152 112.5775 0001118 100.8644 233.3651 15.73201788  5221
STATUS=0
